BANDWAGON-2 OBJECT D    
1 62380U 24247D   26068.52261193  .00011259  00000+0  40119-3 0  9994
2 62380  44.9954 115.6710 0003488 351.1453   8.9368 15.29076102 67732
STARLINK-33783          
1 63712U 25087R   26068.73441662  .00017552  00000+0  60334-3 0  9994
2 63712  53.1606 219.5464 0000986  98.3215 261.7898 15.30199600 49204
